{
  "norad_id": 62809,
  "name": "STARLINK-32787",
  "history": [
    {
      "epoch": "2026-03-28T17:16:16.196160",
      "apogee_km": 475.9906546962893,
      "perigee_km": 474.46468451895544,
      "latitude_deg": 30.324422743641026,
      "longitude_deg": 169.98466240009293,
      "semi_major_axis_km": 6853.364669607622,
      "eccentricity": 0.00011133,
      "inclination_deg": 53.1581,
      "raan_deg": 221.0855,
      "arg_perigee_deg": 79.4681,
      "mean_anomaly_deg": 280.6445,
      "mean_motion_rev_day": 15.3019578
    }
  ]
}