{"fetched_at":"2026-03-29T16:36:15Z","count":15609,"tles":[{"name":"STARLINK-32787","line1":"1 62809U 25018D   26087.71963190  .00032287  00000+0  10976-2 0  9996","line2":"2 62809  53.1581 221.0855 0001113  79.4681 280.6445 15.30195780 66082","category":"Starlink"}]}